[{"OBJECT_NAME":"STARLINK-3827","OBJECT_ID":"2022-045AR","EPOCH":"2026-03-09T15:20:34.434816","MEAN_MOTION":15.0883779,"ECCENTRICITY":0.0001291,"INCLINATION":53.2187,"RA_OF_ASC_NODE":189.3589,"ARG_OF_PERICENTER":91.769,"MEAN_ANOMALY":268.345,"EPHEMERIS_TYPE":0,"CLASSIFICATION_TYPE":"U","NORAD_CAT_ID":52370,"ELEMENT_SET_NO":999,"REV_AT_EPOCH":21591,"BSTAR":5.371e-5,"MEAN_MOTION_DOT":5.67e-6,"MEAN_MOTION_DDOT":0},{"OBJECT_NAME":"UPPER FREE FLYER","OBJECT_ID":"2018-099F","EPOCH":"2026-03-09T16:53:56.769792","MEAN_MOTION":15.10728091,"ECCENTRICITY":0.00115819,"INCLINATION":97.4495,"RA_OF_ASC_NODE":120.4613,"ARG_OF_PERICENTER":289.4209,"MEAN_ANOMALY":70.5769,"EPHEMERIS_TYPE":0,"CLASSIFICATION_TYPE":"U","NORAD_CAT_ID":43763,"ELEMENT_SET_NO":999,"REV_AT_EPOCH":39752,"BSTAR":0.00029221901,"MEAN_MOTION_DOT":4.788e-5,"MEAN_MOTION_DDOT":0}]
